HAWK-B                  
1 43794U 18099AN  26068.71398351  .00007505  00000+0  33189-3 0  9996
2 43794  97.4099 121.8943 0031356 293.4422  66.3518 15.21533472397909
STARLINK-36447          
1 67425U 26005X   26068.53504780  .00029523  00000+0  10777-2 0  9995
2 67425  43.0012 238.7868 0002124 286.3221  73.7398 15.27590263  8679
